NORAD_CAT_ID,OBJECT_NAME,OBJECT_TYPE,EPOCH,MEAN_MOTION,ECCENTRICITY,INCLINATION,RA_OF_ASC_NODE,ARG_OF_PERICENTER,MEAN_ANOMALY,BSTAR,MEAN_MOTION_DOT,MEAN_MOTION_DDOT,TLE_LINE0,TLE_LINE1,TLE_LINE2,SEMIMAJOR_AXIS,PERIOD,APOGEE,PERIGEE,DECAYED
53864.0,STARLINK-4779,PAYLOAD,2023-01-14 19:11:08,15.08830091,0.0001636,53.2151,45.7383,58.6479,301.4673,8.638e-05,1.087e-05,0.0,0 STARLINK-4779,1 53864U 22114AY  23014.79940404  .00001087  00000-0  86380-4 0  9998,2 53864  53.2151  45.7383 0001636  58.6479 301.4673 15.08830091 18985,6917.911,95.438,540.9069999999999,538.644,0.0
53864.0,STARLINK-4779,PAYLOAD,2023-01-15 01:32:42,15.08816132,0.0001919,53.2165,44.5462,64.9506,295.1686,8.496799999999999e-05,1.064e-05,0.0,0 STARLINK-4779,1 53864U 22114AY  23015.06437667  .00001064  00000-0  84968-4 0  9996,2 53864  53.2165  44.5462 0001919  64.9506 295.1686 15.08816132 19029,6917.953,95.439,541.146,538.491,0.0
53864.0,STARLINK-4779,PAYLOAD,2023-01-15 07:54:14,15.08824102,0.0002171999999999,53.2164,43.3584,67.0778,293.0443,0.00013406,1.845e-05,0.0,0 STARLINK-4779,1 53864U 22114AY  23015.32933375  .00001845  00000-0  13406-3 0  9997,2 53864  53.2164  43.3584 0002172  67.0778 293.0443 15.08824102 19065,6917.929,95.439,541.297,538.2909999999999,0.0
53864.0,STARLINK-4779,PAYLOAD,2023-01-15 19:01:56,15.08832631,0.0002161,53.2164,41.2775,68.4466,291.6757,6.7059e-05,7.79e-06,0.0,0 STARLINK-4779,1 53864U 22114AY  23015.79301264  .00000779  00000-0  67059-4 0  9993,2 53864  53.2164  41.2775 0002161  68.4466 291.6757 15.08832631 19676,6917.903,95.438,541.263,538.273,0.0
53864.0,STARLINK-4779,PAYLOAD,2023-01-16 07:45:00,15.08848376,0.0001264,53.2166,38.8953,66.6507,293.4618,9.7723e-05,1.268e-05,0.0,0 STARLINK-4779,1 53864U 22114AY  23016.32291738  .00001268  00000-0  97723-4 0  9992,2 53864  53.2166  38.8953 0001264  66.6507 293.4618 15.08848376 19216,6917.855,95.437,540.594,538.845,0.0
53864.0,STARLINK-4779,PAYLOAD,2023-01-16 10:55:44,15.08871284,0.0001621,53.218,38.3,70.422,289.6947,0.00016045,2.269e-05,0.0,0 STARLINK-4779,1 53864U 22114AY  23016.45537977  .00002269  00000-0  16045-3 0  9993,2 53864  53.2180  38.3000 0001621  70.4220 289.6947 15.08871284 19230,6917.785,95.436,540.771,538.528,0.0
53864.0,STARLINK-4779,PAYLOAD,2023-01-16 18:52:43,15.08829835,0.0001489,53.2188,36.815,65.5984,294.5163,-0.00011592,-2.132e-05,0.0,0 STARLINK-4779,1 53864U 22114AY  23016.78661340 -.00002132  00000-0 -11592-3 0  9994,2 53864  53.2188  36.8150 0001489  65.5984 294.5163 15.08829835 19286,6917.911,95.438,540.807,538.746,0.0
53864.0,STARLINK-4779,PAYLOAD,2023-01-17 07:35:50,15.08809786,0.0001876999999999,53.2169,34.4373,86.4997,273.621,-0.00016762,-2.953e-05,0.0,0 STARLINK-4779,1 53864U 22114AY  23017.31655639 -.00002953  00000-0 -16762-3 0  9993,2 53864  53.2169  34.4373 0001877  86.4997 273.6210 15.08809786 19366,6917.973000000001,95.439,541.136,538.539,0.0
53864.0,STARLINK-4779,PAYLOAD,2023-01-17 10:46:36,15.0881148,0.0001969,53.2164,33.841,92.6994,267.4224,-0.00018034,-3.155e-05,0.0,0 STARLINK-4779,1 53864U 22114AY  23017.44903785 -.00003155  00000-0 -18034-3 0  9994,2 53864  53.2164  33.8410 0001969  92.6994 267.4224 15.08811480 19926,6917.968000000001,95.439,541.195,538.47,0.0
53864.0,STARLINK-4779,PAYLOAD,2023-01-18 01:05:03,15.08833538,9.27e-05,53.2172,31.1625,101.4097,258.7,-9.9866e-05,-1.876e-05,0.0,0 STARLINK-4779,1 53864U 22114AY  23018.04518304 -.00001876  00000-0 -99866-4 0  9991,2 53864  53.2172  31.1625 0000927 101.4097 258.7000 15.08833538 19473,6917.9,95.438,540.406,539.124,0.0
53864.0,STARLINK-4779,PAYLOAD,2023-01-18 07:26:35,15.08842195,0.0001262999999999,53.2183,29.9756,92.1941,267.9196,-3.1834e-05,-7.95e-06,0.0,0 STARLINK-4779,1 53864U 22114AY  23018.31013691 -.00000795  00000-0 -31834-4 0  9990,2 53864  53.2183  29.9756 0001263  92.1941 267.9196 15.08842195 19515,6917.874,95.437,540.612,538.865,0.0
53864.0,STARLINK-4779,PAYLOAD,2023-01-18 10:37:21,15.08855608,0.000149,53.2176,29.3798,97.4265,262.6897,-9.3018e-05,-1.769e-05,0.0,0 STARLINK-4779,1 53864U 22114AY  23018.44261088 -.00001769  00000-0 -93018-4 0  9993,2 53864  53.2176  29.3798 0001490  97.4265 262.6897 15.08855608 20072,6917.8330000000005,95.437,540.7280000000001,538.6669999999999,0.0
53864.0,STARLINK-4779,PAYLOAD,2023-01-19 00:55:50,15.08824736,0.0001408,53.2168,26.7033,107.2058,252.9089,0.00030444,4.559e-05,0.0,0 STARLINK-4779,1 53864U 22114AY  23019.03877586  .00004559  00000-0  30444-3 0  9996,2 53864  53.2168  26.7033 0001408 107.2058 252.9089 15.08824736 19627,6917.927,95.439,540.766,538.818,0.0
53864.0,STARLINK-4779,PAYLOAD,2023-01-19 08:52:44,15.08843984,0.0001473,53.2181,25.2177,105.673,254.4425,0.00033951,5.12e-05,0.0,0 STARLINK-4779,1 53864U 22114AY  23019.36996451  .00005120  00000-0  33951-3 0  9996,2 53864  53.2181  25.2177 0001473 105.6730 254.4425 15.08843984 20210,6917.868,95.437,540.752,538.714,0.0
53864.0,STARLINK-4779,PAYLOAD,2023-01-19 20:00:28,15.08835578,0.0001434,53.2162,23.1339,103.2258,256.8894,5.1589e-05,5.33e-06,0.0,0 STARLINK-4779,1 53864U 22114AY  23019.83365990  .00000533  00000-0  51589-4 0  9997,2 53864  53.2162  23.1339 0001434 103.2258 256.8894 15.08835578 19744,6917.894,95.438,540.751,538.7669999999999,0.0
53864.0,STARLINK-4779,PAYLOAD,2023-01-20 08:43:33,15.08833783,0.000139,53.2158,20.7544,91.6089,268.5062,-9.1526e-05,-1.744e-05,0.0,0 STARLINK-4779,1 53864U 22114AY  23020.36358796 -.00001744  00000-0 -91526-4 0  9995,2 53864  53.2158  20.7544 0001390  91.6089 268.5062 15.08833783 19825,6917.899,95.438,540.726,538.803,0.0
53864.0,STARLINK-4779,PAYLOAD,2023-01-21 05:23:34,15.0884542,0.0001341,53.2174,16.8886,95.8717,264.2428,-8.437200000000001e-05,-1.631e-05,0.0,0 STARLINK-4779,1 53864U 22114AY  23021.22470110 -.00001631  00000-0 -84372-4 0  9992,2 53864  53.2174  16.8886 0001341  95.8717 264.2428 15.08845420 19952,6917.8640000000005,95.437,540.6569999999999,538.8009999999999,0.0
53864.0,STARLINK-4779,PAYLOAD,2023-01-21 10:09:42,15.08854233,0.0001418,53.2177,15.9976,94.3165,265.7989,-2.3711e-06,-3.26e-06,0.0,0 STARLINK-4779,1 53864U 22114AY  23021.42341170 -.00000326  00000-0 -23711-5 0  9998,2 53864  53.2177  15.9976 0001418  94.3165 265.7989 15.08854233 19984,6917.837,95.437,540.683,538.721,0.0
53864.0,STARLINK-4779,PAYLOAD,2023-01-22 05:14:21,15.08834511,0.0001329,53.2191,12.4296,72.9582,287.1555,8.9887e-05,1.143e-05,0.0,0 STARLINK-4779,1 53864U 22114AY  23022.21830122  .00001143  00000-0  89887-4 0  9997,2 53864  53.2191  12.4296 0001329  72.9582 287.1555 15.08834511 20103,6917.897,95.438,540.682,538.8430000000001,0.0
53864.0,STARLINK-4779,PAYLOAD,2023-01-22 08:25:06,15.08846047,0.0001308,53.2185,11.8344,86.7351,273.3791,0.00015286,2.146e-05,0.0,0 STARLINK-4779,1 53864U 22114AY  23022.35077105  .00002146  00000-0  15286-3 0  9991,2 53864  53.2185  11.8344 0001308  86.7351 273.3791 15.08846047 20125,6917.861999999999,95.437,540.632,538.822,0.0
53864.0,STARLINK-4779,PAYLOAD,2023-01-22 16:22:04,15.08822767,0.0002003,53.2183,10.3479,79.0363,281.0854,-1.7671e-05,-5.69e-06,0.0,0 STARLINK-4779,1 53864U 22114AY  23022.68199552 -.00000569  00000-0 -17671-4 0  9998,2 53864  53.2183  10.3479 0002003  79.0363 281.0854 15.08822767 20171,6917.933000000001,95.439,541.184,538.4119999999999,0.0
53864.0,STARLINK-4779,PAYLOAD,2023-01-23 05:05:09,15.08831045,0.0001558,53.219,7.9736,81.2503,278.8666,-1.7574e-05,-5.68e-06,0.0,0 STARLINK-4779,1 53864U 22114AY  23023.21191224 -.00000568  00000-0 -17574-4 0  9997,2 53864  53.2190   7.9736 0001558  81.2503 278.8666 15.08831045 20255,6917.908,95.438,540.851,538.695,0.0
53864.0,STARLINK-4779,PAYLOAD,2023-01-23 16:12:50,15.08838978,0.0001388,53.219,5.8855,86.985,273.1301,-2.6938e-05,-7.17e-06,0.0,0 STARLINK-4779,1 53864U 22114AY  23023.67558750 -.00000717  00000-0 -26938-4 0  9998,2 53864  53.2190   5.8855 0001388  86.9850 273.1301 15.08838978 20326,6917.884,95.438,540.7090000000001,538.788,0.0
53864.0,STARLINK-4779,PAYLOAD,2023-01-24 08:06:41,15.08852641,0.0001119,53.2169,2.9129,92.1158,267.9962,2.235e-05,6.8e-07,0.0,0 STARLINK-4779,1 53864U 22114AY  23024.33797688  .00000068  00000-0  22350-4 0  9998,2 53864  53.2169   2.9129 0001119  92.1158 267.9962 15.08852641 20424,6917.842,95.437,540.481,538.933,0.0
53864.0,STARLINK-4779,PAYLOAD,2023-01-25 04:46:43,15.08828022,9.96e-05,53.2184,359.0478,92.27,267.8406,0.00014639,2.042e-05,0.0,0 STARLINK-4779,1 53864U 22114AY  23025.19911031  .00002042  00000-0  14639-3 0  9997,2 53864  53.2184 359.0478 0000996  92.2700 267.8406 15.08828022 20552,6917.917,95.438,540.471,539.0930000000001,0.0
53864.0,STARLINK-4779,PAYLOAD,2023-01-25 07:57:29,15.088383300000002,0.0001204,53.2185,358.452,94.9349,265.178,3.5335e-05,2.75e-06,0.0,0 STARLINK-4779,1 53864U 22114AY  23025.33158782  .00000275  00000-0  35335-4 0  9992,2 53864  53.2185 358.4520 0001204  94.9349 265.1780 15.08838330 21117,6917.885,95.438,540.5830000000001,538.918,0.0
53864.0,STARLINK-4779,PAYLOAD,2023-01-26 03:02:06,15.08843312,0.0001244,53.2179,354.8833,100.646,259.4672,-5.3286e-06,-3.73e-06,0.0,0 STARLINK-4779,1 53864U 22114AY  23026.12646706 -.00000373  00000-0 -53286-5 0  9995,2 53864  53.2179 354.8833 0001244 100.6460 259.4672 15.08843312 21235,6917.87,95.437,540.596,538.875,0.0
53864.0,STARLINK-4779,PAYLOAD,2023-01-26 22:06:44,15.08835418,0.0001010999999999,53.2181,351.31699999999995,90.8994,269.2114,-3.2967e-05,-8.12e-06,0.0,0 STARLINK-4779,1 53864U 22114AY  23026.92135355 -.00000812  00000-0 -32967-4 0  9996,2 53864  53.2181 351.3170 0001011  90.8994 269.2114 15.08835418 20819,6917.894,95.438,540.4590000000001,539.06,0.0
53864.0,STARLINK-4779,PAYLOAD,2023-01-27 06:03:39,15.08843729,0.0001032999999999,53.2183,349.8284,86.6699,273.4411,6.1669e-05,6.94e-06,0.0,0 STARLINK-4779,1 53864U 22114AY  23027.25254460  .00000694  00000-0  61669-4 0  9999,2 53864  53.2183 349.8284 0001033  86.6699 273.4411 15.08843729 20864,6917.869000000001,95.437,540.4490000000001,539.019,0.0
